STARLINK-2424
1 17834C 21018AZ  21326.16963493  .00005426  00000-0  36359-3 0  3263
2 17834  53.0548  92.9776 0001363  85.2571 344.9746 15.06391887    10
